{
  "type": "FeatureCollection",
  "features": [
    {
      "type": "Feature",
      "properties": {
        "name": "Alabama",
        "postal": "AL"
      },
      "geometry": {
        "type": "Polygon",
        "coordinates": [[[-88.473227, 35.0041], [-85.605165, 35.0041], [-85.431413, 34.984749], [-85.184951, 32.859696], [-85.069935, 32.580372], [-84.960397, 32.421541], [-85.004212, 32.322956], [-84.889196, 32.262709], [-85.058981, 32.13674], [-85.053504, 32.01077], [-85.141136, 31.840985], [-85.042551, 31.539753], [-85.113751, 31.27686], [-85.004212, 31.003013], [-85.497137, 30.997536], [-87.600282, 30.997536], [-87.633143, 30.86609], [-87.408589, 30.674397], [-87.446927, 30.510088], [-87.37025, 30.427934], [-87.518128, 30.280057], [-87.655051, 30.247195], [-87.90699, 30.411504], [-87.934375, 30.657966], [-88.011052, 30.685351], [-88.10416, 30.499135], [-88.137022, 30.318396], [-88.394438, 30.367688], [-88.471115, 31.895754], [-88.241084, 33.796253], [-88.098683, 34.891641], [-88.202745, 34.995703], [-88.473227, 35.0041]]]
      }
    },
    {
      "type": "Feature",
      "properties": {
        "name": "California",
        "postal": "CA"
      },
      "geometry": {
        "type": "Polygon",
        "coordinates": [[[-124.482003, 42.000000], [-120.000000, 42.000000], [-120.000000, 39.000000], [-114.633333, 35.000000], [-114.633333, 32.533333], [-117.124933, 32.533333], [-117.124933, 32.734433], [-124.482003, 42.000000]]]
      }
    },
    {
      "type": "Feature",
      "properties": {
        "name": "Texas",
        "postal": "TX"
      },
      "geometry": {
        "type": "Polygon",
        "coordinates": [[[-106.645646, 31.913719], [-103.064472, 31.913719], [-103.064472, 36.500704], [-100.000000, 36.500704], [-100.000000, 34.562805], [-96.434949, 33.693694], [-93.507701, 31.000000], [-93.507701, 25.837377], [-97.140359, 25.837377], [-99.502991, 26.435702], [-101.400000, 29.769495], [-106.645646, 31.913719]]]
      }
    },
    {
      "type": "Feature",
      "properties": {
        "name": "Florida",
        "postal": "FL"
      },
      "geometry": {
        "type": "Polygon",
        "coordinates": [[[-87.634938, 31.000000], [-85.001733, 31.000000], [-83.001733, 31.000000], [-82.216449, 30.564296], [-82.167157, 30.356734], [-82.046664, 30.362211], [-82.002849, 30.564296], [-82.041186, 30.751991], [-81.948079, 30.827668], [-81.718048, 30.745514], [-81.444201, 30.707176], [-81.383954, 30.27458], [-81.257985, 29.787132], [-80.967707, 29.14633], [-80.524134, 28.461713], [-80.589858, 28.41242], [-80.56247, 28.094758], [-80.381732, 27.738757], [-80.091454, 27.021277], [-80.03121, 26.796723], [-80.036688, 26.566691], [-80.152182, 25.739673], [-80.381732, 25.723718], [-80.597736, 25.018121], [-80.875126, 24.895646], [-81.077713, 24.704959], [-81.347014, 24.544173], [-81.825016, 24.531665], [-82.014151, 24.660564], [-82.353867, 24.629149], [-82.55595, 24.759571], [-82.857182, 25.868571], [-82.857182, 26.917386], [-82.857182, 27.837342], [-83.044877, 28.888275], [-83.205663, 29.424462], [-83.536355, 30.110527], [-84.091714, 30.458424], [-85.497137, 30.997536], [-87.600282, 30.997536], [-87.634938, 31.000000]]]
      }
    }
  ]
}
